1 29155U 06018A   12018.09987154 -.00000254  00000-0  10000-3 0  9101
2 29155 000.3743 081.1463 0001385 317.8779 039.2600 01.00273752 20732